NORAD_CAT_ID,OBJECT_NAME,OBJECT_TYPE,EPOCH,MEAN_MOTION,ECCENTRICITY,INCLINATION,RA_OF_ASC_NODE,ARG_OF_PERICENTER,MEAN_ANOMALY,BSTAR,MEAN_MOTION_DOT,MEAN_MOTION_DDOT,TLE_LINE0,TLE_LINE1,TLE_LINE2,SEMIMAJOR_AXIS,PERIOD,APOGEE,PERIGEE,DECAYED
51854.0,STARLINK-3541,PAYLOAD,2022-04-07 22:00:00,15.50149094,0.0001321,53.2176,330.7318,48.0997,319.7244,-0.012817,-0.00674637,0.0,0 STARLINK-3541,1 51854U 22022C   22097.91667824 -.00674637  00000-0 -12817-1 0  9999,2 51854  53.2176 330.7318 0001321  48.0997 319.7244 15.50149094  3683,6794.427,92.894,417.19,415.395,0.0
51854.0,STARLINK-3541,PAYLOAD,2022-04-08 06:00:00,15.49577195,0.0001298,53.2171,329.1342,61.0422,7.741,-0.0037217,-0.00204039,0.0,0 STARLINK-3541,1 51854U 22022C   22098.25001157 -.00204039  00000-0 -37217-2 0  9995,2 51854  53.2171 329.1342 0001298  61.0422   7.7410 15.49577195  6854,6796.099,92.929,418.846,417.082,0.0
51854.0,STARLINK-3541,PAYLOAD,2022-04-08 14:00:03,15.49437415,0.0001365,53.2174,327.5365,58.3603,71.0358,-0.013962,-0.00722171,0.0,0 STARLINK-3541,1 51854U 22022C   22098.58336806 -.00722171  00000-0 -13962-1 0  9995,2 51854  53.2174 327.5365 0001365  58.3603  71.0358 15.49437415  6911,6796.5080000000025,92.937,419.3,417.445,0.0
51854.0,STARLINK-3541,PAYLOAD,2022-04-08 22:00:00,15.48926277,0.0001615,53.2174,325.9451,49.6228,139.7086,-0.014175,-0.00720239,0.0,0 STARLINK-3541,1 51854U 22022C   22098.91667824 -.00720239  00000-0 -14175-1 0  9999,2 51854  53.2174 325.9451 0001615  49.6228 139.7086 15.48926277  3660,6798.003000000002,92.968,420.966,418.77,0.0
51854.0,STARLINK-3541,PAYLOAD,2022-04-09 14:00:01,15.47905728,0.0001327,53.2176,322.7601,58.5373,249.0867,-0.014659,-0.00718631,0.0,0 STARLINK-3541,1 51854U 22022C   22099.58334491 -.00718631  00000-0 -14659-1 0  9994,2 51854  53.2176 322.7601 0001327  58.5373 249.0867 15.47905728  3708,6800.991,93.029,423.758,421.953,0.0
51854.0,STARLINK-3541,PAYLOAD,2022-04-09 16:00:00,15.47768042,0.0001466,53.2175,322.3639,47.9342,4.3077,-0.014399,-0.00703663,0.0,0 STARLINK-3541,1 51854U 22022C   22099.66667824 -.00703663  00000-0 -14399-1 0  9992,2 51854  53.2175 322.3639 0001466  47.9342   4.3077 15.47768042  7071,6801.394,93.037,424.256,422.262,0.0
51854.0,STARLINK-3541,PAYLOAD,2022-04-09 22:00:00,15.47398675,0.0001462,53.2175,321.1724,45.2104,320.6381,-0.0150419999999999,-0.00724029,0.0,0 STARLINK-3541,1 51854U 22022C   22099.91667824 -.00724029  00000-0 -15042-1 0  9995,2 51854  53.2175 321.1724 0001462  45.2104 320.6381 15.47398675  3705,6802.476,93.059,425.336,423.347,0.0
51854.0,STARLINK-3541,PAYLOAD,2022-04-10 14:00:01,15.46377037,0.0001399,53.2174,317.9948,54.5765,65.8882,-0.015496,-0.00720121,0.0,0 STARLINK-3541,1 51854U 22022C   22100.58334491 -.00720121  00000-0 -15496-1 0  9994,2 51854  53.2174 317.9948 0001399  54.5765  65.8882 15.46377037  7223,6805.472,93.121,428.289,426.385,0.0
51854.0,STARLINK-3541,PAYLOAD,2022-04-10 22:00:00,15.45866821,0.0001702,53.2172,316.4107,45.0692,131.7829,-0.015775,-0.00720289,0.0,0 STARLINK-3541,1 51854U 22022C   22100.91667824 -.00720289  00000-0 -15775-1 0  9995,2 51854  53.2172 316.4107 0001702  45.0692 131.7829 15.45866821  3698,6806.969,93.152,429.99300000000005,427.676,0.0
51854.0,STARLINK-3541,PAYLOAD,2022-04-11 12:00:00,15.44975163,0.0001431,53.2171,313.6359,58.4815,125.5765,-0.0163099999999999,-0.00722007,0.0,0 STARLINK-3541,1 51854U 22022C   22101.50001157 -.00722007  00000-0 -16310-1 0  9998,2 51854  53.2171 313.6359 0001431  58.4815 125.5765 15.44975163  7366,6809.5880000000025,93.205,432.42800000000005,430.479,0.0
51854.0,STARLINK-3541,PAYLOAD,2022-04-11 14:00:01,15.44846144,0.0001317,53.2175,313.2402,65.3279,222.4634,-0.016281,-0.0071785,0.0,0 STARLINK-3541,1 51854U 22022C   22101.58334491 -.00717850  00000-0 -16281-1 0  9993,2 51854  53.2175 313.2402 0001317  65.3279 222.4634 15.44846144  3699,6809.967,93.213,432.729,430.935,0.0
51854.0,STARLINK-3541,PAYLOAD,2022-04-11 22:00:00,15.4433832,0.0001401,53.2174,311.6599,50.6921,291.6473,-0.016685,-0.00722612,0.0,0 STARLINK-3541,1 51854U 22022C   22101.91667824 -.00722612  00000-0 -16685-1 0  9999,2 51854  53.2174 311.6599 0001401  50.6921 291.6473 15.44338320  3671,6811.46,93.244,434.279,432.371,0.0
51854.0,STARLINK-3541,PAYLOAD,2022-04-12 12:00:00,15.43442663,0.0001348,53.2173,308.8915,51.3354,294.9942,-0.017068,-0.00717383,0.0,0 STARLINK-3541,1 51854U 22022C   22102.50001157 -.00717383  00000-0 -17068-1 0  9991,2 51854  53.2173 308.8915 0001348  51.3354 294.9942 15.43442663  7517,6814.095,93.298,436.878,435.041,0.0
51854.0,STARLINK-3541,PAYLOAD,2022-04-12 14:00:01,15.43316311,0.0001485,53.2176,308.4969,47.4694,42.1331,-0.017164,-0.0071828,0.0,0 STARLINK-3541,1 51854U 22022C   22102.58334491 -.00718280  00000-0 -17164-1 0  9993,2 51854  53.2176 308.4969 0001485  47.4694  42.1331 15.43316311  3702,6814.467,93.306,437.344,435.32,0.0
51854.0,STARLINK-3541,PAYLOAD,2022-04-12 22:00:00,15.42807125,0.0001634,53.2175,306.9202,46.2235,96.0891,-0.017505,-0.00719913,0.0,0 STARLINK-3541,1 51854U 22022C   22102.91667824 -.00719913  00000-0 -17505-1 0  9992,2 51854  53.2175 306.9202 0001634  46.2235  96.0891 15.42807125  3670,6815.965999999999,93.336,438.945,436.717,0.0
51854.0,STARLINK-3541,PAYLOAD,2022-04-13 14:00:03,15.41787126,0.0001403,53.2177,303.7643,65.8738,180.1528,-0.018087,-0.00718763,0.0,0 STARLINK-3541,1 51854U 22022C   22103.58336806 -.00718763  00000-0 -18087-1 0  9997,2 51854  53.2177 303.7643 0001403  65.8738 180.1528 15.41787126  7689,6818.972,93.398,441.794,439.88,0.0
51854.0,STARLINK-3541,PAYLOAD,2022-04-13 22:00:00,15.41277197,0.0001495,53.2177,302.1913,52.875,243.8953,-0.018427,-0.00719792,0.0,0 STARLINK-3541,1 51854U 22022C   22103.91667824 -.00719792  00000-0 -18427-1 0  9992,2 51854  53.2177 302.1913 0001495  52.8750 243.8953 15.41277197  3680,6820.476,93.429,443.36,441.321,0.0
51854.0,STARLINK-3541,PAYLOAD,2022-04-14 14:00:01,15.40256998,0.0001460999999999,53.2176,299.043,44.5798,352.0994,-0.019039,-0.00718883,0.0,0 STARLINK-3541,1 51854U 22022C   22104.58334491 -.00718883  00000-0 -19039-1 0  9997,2 51854  53.2176 299.0430 0001461  44.5798 352.0994 15.40256998  7834,6823.486999999999,93.491,446.349,444.355,0.0
51854.0,STARLINK-3541,PAYLOAD,2022-04-14 22:00:00,15.39746915,0.0001456,53.2176,297.4734,49.2968,36.4163,-0.01938,-0.00719432,0.0,0 STARLINK-3541,1 51854U 22022C   22104.91667824 -.00719432  00000-0 -19380-1 0  9993,2 51854  53.2176 297.4734 0001456  49.2968  36.4163 15.39746915  3689,6824.994000000002,93.522,447.853,445.865,0.0
51854.0,STARLINK-3541,PAYLOAD,2022-04-15 13:12:42,15.39587405,0.0001314,53.2162,294.5016,67.0027,293.1117,-0.0086098999999999,-0.00329942,0.0,0 STARLINK-3541,1 51854U 22022C   22105.55049024 -.00329942  00000-0 -86099-2 0  9995,2 51854  53.2162 294.5016 0001314  67.0027 293.1117 15.39587405  7998,6825.465,93.532,448.227,446.434,0.0
51854.0,STARLINK-3541,PAYLOAD,2022-04-15 14:00:01,15.38726165,0.0001578,53.2176,294.3324,52.6047,129.3407,-0.019976,-0.00717183,0.0,0 STARLINK-3541,1 51854U 22022C   22105.58334491 -.00717183  00000-0 -19976-1 0  9990,2 51854  53.2176 294.3324 0001578  52.6047 129.3407 15.38726165  7996,6828.012,93.584,450.955,448.8,0.0
51854.0,STARLINK-3541,PAYLOAD,2022-04-15 22:00:00,15.3821488,0.0001604,53.2174,292.7662,52.2806,176.8606,-0.020252,-0.00715151,0.0,0 STARLINK-3541,1 51854U 22022C   22105.91667824 -.00715151  00000-0 -20252-1 0  9998,2 51854  53.2174 292.7662 0001604  52.2806 176.8606 15.38214880  3664,6829.525,93.615,452.486,450.295,0.0
51854.0,STARLINK-3541,PAYLOAD,2022-04-16 14:00:01,15.37197867,0.0001475,53.2175,289.6325,49.5697,272.1258,-0.021076,-0.00719544,0.0,0 STARLINK-3541,1 51854U 22022C   22106.58334491 -.00719544  00000-0 -21076-1 0  9998,2 51854  53.2175 289.6325 0001475  49.5697 272.1258 15.37197867  8144,6832.5369999999975,93.677,455.41,453.394,0.0
51854.0,STARLINK-3541,PAYLOAD,2022-04-16 22:00:01,15.36686062,0.0001291999999999,53.2174,288.0701,57.2128,309.9046,-0.021356,-0.0071723,0.0,0 STARLINK-3541,1 51854U 22022C   22106.91668981 -.00717230  00000-0 -21356-1 0  9990,2 51854  53.2174 288.0701 0001292  57.2128 309.9046 15.36686062  3672,6834.054,93.708,456.802,455.036,0.0
51854.0,STARLINK-3541,PAYLOAD,2022-04-17 14:00:01,15.35667461,0.0001595,53.2174,284.9437,43.7615,52.17,-0.022136,-0.0071921,0.0,0 STARLINK-3541,1 51854U 22022C   22107.58334491 -.00719210  00000-0 -22136-1 0  9997,2 51854  53.2174 284.9437 0001595  43.7615  52.1700 15.35667461  8300,6837.076,93.77,460.031,457.85,0.0
51854.0,STARLINK-3541,PAYLOAD,2022-04-17 22:00:00,15.35152856,0.0001535,53.2173,283.3848,51.3567,88.0952,-0.022252,-0.00711697,0.0,0 STARLINK-3541,1 51854U 22022C   22107.91667824 -.00711697  00000-0 -22252-1 0  9993,2 51854  53.2173 283.3848 0001535  51.3567  88.0952 15.35152856  3672,6838.604,93.802,461.518,459.419,0.0
51854.0,STARLINK-3541,PAYLOAD,2022-04-18 14:00:01,15.34136111,0.000167,53.2174,280.2658,49.069,175.5834,-0.023155,-0.00716478,0.0,0 STARLINK-3541,1 51854U 22022C   22108.58334491 -.00716478  00000-0 -23155-1 0  9993,2 51854  53.2174 280.2658 0001670  49.0690 175.5834 15.34136111  3675,6841.625,93.864,464.632,462.347,0.0
51854.0,STARLINK-3541,PAYLOAD,2022-04-18 20:00:01,15.33753981,0.0001618,53.2173,279.0994,51.3507,114.6191,-0.023461,-0.00717096,0.0,0 STARLINK-3541,1 51854U 22022C   22108.83334491 -.00717096  00000-0 -23461-1 0  9998,2 51854  53.2173 279.0994 0001618  51.3507 114.6191 15.33753981  8492,6842.761,93.887,465.733,463.519,0.0
51854.0,STARLINK-3541,PAYLOAD,2022-04-18 22:00:00,15.3362362,0.00015,53.2174,278.7103,55.1225,211.2112,-0.023376,-0.00711939,0.0,0 STARLINK-3541,1 51854U 22022C   22108.91667824 -.00711939  00000-0 -23376-1 0  9991,2 51854  53.2174 278.7103 0001500  55.1225 211.2112 15.33623620  3678,6843.149,93.895,466.04,463.987,0.0
